{
    "links": {
        "self": "http://www.neowsapp.com/rest/v1/neo/3773663?api_key=iIulBulltgU6a56xZRHN4H3l9WmuAYTsLGpBGhQ2"
    },
    "id": "3773663",
    "neo_reference_id": "3773663",
    "name": "(2017 FU128)",
    "designation": "2017 FU128",
    "nasa_jpl_url": "http://ssd.jpl.nasa.gov/sbdb.cgi?sstr=3773663",
    "absolute_magnitude_h": 23.5,
    "estimated_diameter": {
        "kilometers": {
            "estimated_diameter_min": 0.0530340723,
            "estimated_diameter_max": 0.1185877909
        },
        "meters": {
            "estimated_diameter_min": 53.0340723319,
            "estimated_diameter_max": 118.5877908577
        },
        "miles": {
            "estimated_diameter_min": 0.0329538346,
            "estimated_diameter_max": 0.0736870142
        },
        "feet": {
            "estimated_diameter_min": 173.9963058693,
            "estimated_diameter_max": 389.0675677576
        }
    },
    "is_potentially_hazardous_asteroid": false,
    "close_approach_data": [
        {
            "close_approach_date": "2017-03-14",
            "close_approach_date_full": "2017-Mar-14 09:12",
            "epoch_date_close_approach": 1489482720000,
            "relative_velocity": {
                "kilometers_per_second": "6.5355121747",
                "kilometers_per_hour": "23527.8438288674",
                "miles_per_hour": "14619.2871835537"
            },
            "miss_distance": {
                "astronomical": "0.1071210074",
                "lunar": "41.6700718786",
                "kilometers": "16025074.539294238",
                "miles": "9957519.5823989644"
            },
            "orbiting_body": "Earth"
        }
    ],
    "orbital_data": {
        "orbit_id": "4",
        "orbit_determination_date": "2017-06-22 06:20:55",
        "first_observation_date": "2017-03-30",
        "last_observation_date": "2017-04-22",
        "data_arc_in_days": 23,
        "observations_used": 30,
        "orbit_uncertainty": "8",
        "minimum_orbit_intersection": ".0860834",
        "jupiter_tisserand_invariant": "3.539",
        "epoch_osculation": "2457845.5",
        "eccentricity": ".5109052607180334",
        "semi_major_axis": "2.126182771868046",
        "inclination": "6.39484536067031",
        "ascending_node_longitude": "123.2573323270214",
        "orbital_period": "1132.398587775106",
        "perihelion_distance": "1.039904808472611",
        "perihelion_argument": "46.66973837661357",
        "aphelion_distance": "3.212460735263481",
        "perihelion_time": "2457825.754562606922",
        "mean_anomaly": "6.277257441193309",
        "mean_motion": ".3179092625921712",
        "equinox": "J2000",
        "orbit_class": {
            "orbit_class_type": "AMO",
            "orbit_class_description": "Near-Earth asteroid orbits similar to that of 1221 Amor",
            "orbit_class_range": "1.017 AU < q (perihelion) < 1.3 AU"
        }
    },
    "is_sentry_object": false
}